{"fetched_at":"2026-07-23T17:55:34.243Z","source":"https://celestrak.org/NORAD/elements/gp.php?NAME=HULIANWANG&FORMAT=JSON","constellation":"guowang","records":[{"OBJECT_NAME":"HULIANWANG DIGUI-156","OBJECT_ID":"2026-047B","EPOCH":"2026-07-23T05:33:43.851456","CLASSIFICATION_TYPE":"U","MEAN_MOTION":13.29326595,"ECCENTRICITY":0.00009323,"INCLINATION":50.0038,"RA_OF_ASC_NODE":287.0388,"ARG_OF_PERICENTER":230.9996,"MEAN_ANOMALY":129.0793,"EPHEMERIS_TYPE":0,"NORAD_CAT_ID":68130,"ELEMENT_SET_NO":999,"REV_AT_EPOCH":1785,"BSTAR":0.000061268677,"MEAN_MOTION_DOT":-9.6e-7,"MEAN_MOTION_DDOT":0},{"OBJECT_NAME":"HULIANWANG DIGUI-157","OBJECT_ID":"2026-047C","EPOCH":"2026-07-22T16:43:55.246944","CLASSIFICATION_TYPE":"U","MEAN_MOTION":13.29325935,"ECCENTRICITY":0.00009666,"INCLINATION":50.0008,"RA_OF_ASC_NODE":288.852,"ARG_OF_PERICENTER":227.2329,"MEAN_ANOMALY":132.8462,"EPHEMERIS_TYPE":0,"NORAD_CAT_ID":68131,"ELEMENT_SET_NO":999,"REV_AT_EPOCH":1779,"BSTAR":0.000067022955,"MEAN_MOTION_DOT":-9.3e-7,"MEAN_MOTION_DDOT":0},{"OBJECT_NAME":"HULIANWANG DIGUI-158","OBJECT_ID":"2026-047D","EPOCH":"2026-07-22T12:55:20.567136","CLASSIFICATION_TYPE":"U","MEAN_MOTION":13.2932462,"ECCENTRICITY":0.00010242,"INCLINATION":50.0055,"RA_OF_ASC_NODE":289.3985,"ARG_OF_PERICENTER":224.1695,"MEAN_ANOMALY":135.9095,"EPHEMERIS_TYPE":0,"NORAD_CAT_ID":68132,"ELEMENT_SET_NO":999,"REV_AT_EPOCH":1776,"BSTAR":0.000060891343,"MEAN_MOTION_DOT":-9.6e-7,"MEAN_MOTION_DDOT":0},{"OBJECT_NAME":"HULIANWANG DIGUI-159","OBJECT_ID":"2026-047E","EPOCH":"2026-07-23T06:45:54.508032","CLASSIFICATION_TYPE":"U","MEAN_MOTION":13.29326512,"ECCENTRICITY":0.0001117,"INCLINATION":50.0024,"RA_OF_ASC_NODE":286.6248,"ARG_OF_PERICENTER":222.0237,"MEAN_ANOMALY":138.055,"EPHEMERIS_TYPE":0,"NORAD_CAT_ID":68133,"ELEMENT_SET_NO":999,"REV_AT_EPOCH":1787,"BSTAR":0.000074607482,"MEAN_MOTION_DOT":-8.9e-7,"MEAN_MOTION_DDOT":0},{"OBJECT_NAME":"HULIANWANG DIGUI-160","OBJECT_ID":"2026-047F","EPOCH":"2026-07-22T15:55:40.204128","CLASSIFICATION_TYPE":"U","MEAN_MOTION":13.29326249,"ECCENTRICITY":0.00011401,"INCLINATION":50.0082,"RA_OF_ASC_NODE":288.7586,"ARG_OF_PERICENTER":210.3437,"MEAN_ANOMALY":149.7369,"EPHEMERIS_TYPE":0,"NORAD_CAT_ID":68134,"ELEMENT_SET_NO":999,"REV_AT_EPOCH":1778,"BSTAR":0.000077835838,"MEAN_MOTION_DOT":-8.8e-7,"MEAN_MOTION_DDOT":0},{"OBJECT_NAME":"HULIANWANG DIGUI-161","OBJECT_ID":"2026-047G","EPOCH":"2026-07-23T06:33:46.436832","CLASSIFICATION_TYPE":"U","MEAN_MOTION":13.29325325,"ECCENTRICITY":0.00010058,"INCLINATION":50.0099,"RA_OF_ASC_NODE":286.6668,"ARG_OF_PERICENTER":223.6305,"MEAN_ANOMALY":136.4488,"EPHEMERIS_TYPE":0,"NORAD_CAT_ID":68135,"ELEMENT_SET_NO":999,"REV_AT_EPOCH":1787,"BSTAR":0.000073127041,"MEAN_MOTION_DOT":-9e-7,"MEAN_MOTION_DDOT":0},{"OBJECT_NAME":"HULIANWANG DIGUI-162","OBJECT_ID":"2026-047H","EPOCH":"2026-07-23T06:10:03.339840","CLASSIFICATION_TYPE":"U","MEAN_MOTION":13.29324774,"ECCENTRICITY":0.00009756,"INCLINATION":50.0071,"RA_OF_ASC_NODE":286.5493,"ARG_OF_PERICENTER":232.8069,"MEAN_ANOMALY":127.2714,"EPHEMERIS_TYPE":0,"NORAD_CAT_ID":68136,"ELEMENT_SET_NO":999,"REV_AT_EPOCH":1786,"BSTAR":0.000084670116,"MEAN_MOTION_DOT":-8.5e-7,"MEAN_MOTION_DDOT":0},{"OBJECT_NAME":"HULIANWANG DIGUI-163","OBJECT_ID":"2026-047J","EPOCH":"2026-07-23T05:57:43.372224","CLASSIFICATION_TYPE":"U","MEAN_MOTION":13.29326076,"ECCENTRICITY":0.00009301,"INCLINATION":50.0073,"RA_OF_ASC_NODE":286.508,"ARG_OF_PERICENTER":230.8369,"MEAN_ANOMALY":129.2421,"EPHEMERIS_TYPE":0,"NORAD_CAT_ID":68137,"ELEMENT_SET_NO":999,"REV_AT_EPOCH":1787,"BSTAR":0.000058367135,"MEAN_MOTION_DOT":-9.7e-7,"MEAN_MOTION_DDOT":0},{"OBJECT_NAME":"HULIANWANG DIGUI-164","OBJECT_ID":"2026-076A","EPOCH":"2026-07-23T05:43:46.659072","CLASSIFICATION_TYPE":"U","MEAN_MOTION":13.24410434,"ECCENTRICITY":0.00018902,"INCLINATION":86.4948,"RA_OF_ASC_NODE":31.6999,"ARG_OF_PERICENTER":78.7285,"MEAN_ANOMALY":281.4062,"EPHEMERIS_TYPE":0,"NORAD_CAT_ID":68656,"ELEMENT_SET_NO":999,"REV_AT_EPOCH":1414,"BSTAR":0.000055012425,"MEAN_MOTION_DOT":3.8e-7,"MEAN_MOTION_DDOT":0},{"OBJECT_NAME":"HULIANWANG DIGUI-165","OBJECT_ID":"2026-076B","EPOCH":"2026-07-23T05:32:53.606400","CLASSIFICATION_TYPE":"U","MEAN_MOTION":13.24413175,"ECCENTRICITY":0.00020812,"INCLINATION":86.4965,"RA_OF_ASC_NODE":31.721,"ARG_OF_PERICENTER":82.2312,"MEAN_ANOMALY":277.9059,"EPHEMERIS_TYPE":0,"NORAD_CAT_ID":68657,"ELEMENT_SET_NO":999,"REV_AT_EPOCH":1414,"BSTAR":-0.000010723402,"MEAN_MOTION_DOT":1e-7,"MEAN_MOTION_DDOT":0},{"OBJECT_NAME":"HULIANWANG DIGUI-166","OBJECT_ID":"2026-076C","EPOCH":"2026-07-23T05:22:07.072608","CLASSIFICATION_TYPE":"U","MEAN_MOTION":13.24411277,"ECCENTRICITY":0.00020507,"INCLINATION":86.4906,"RA_OF_ASC_NODE":31.6504,"ARG_OF_PERICENTER":82.5263,"MEAN_ANOMALY":277.6104,"EPHEMERIS_TYPE":0,"NORAD_CAT_ID":68658,"ELEMENT_SET_NO":999,"REV_AT_EPOCH":1414,"BSTAR":-0.00000973269,"MEAN_MOTION_DOT":1e-7,"MEAN_MOTION_DDOT":0},{"OBJECT_NAME":"HULIANWANG DIGUI-167","OBJECT_ID":"2026-076D","EPOCH":"2026-07-23T05:11:07.642752","CLASSIFICATION_TYPE":"U","MEAN_MOTION":13.24413337,"ECCENTRICITY":0.00020325,"INCLINATION":86.496,"RA_OF_ASC_NODE":31.7104,"ARG_OF_PERICENTER":82.6479,"MEAN_ANOMALY":277.4886,"EPHEMERIS_TYPE":0,"NORAD_CAT_ID":68659,"ELEMENT_SET_NO":999,"REV_AT_EPOCH":1414,"BSTAR":-0.000006558118,"MEAN_MOTION_DOT":1.2e-7,"MEAN_MOTION_DDOT":0},{"OBJECT_NAME":"HULIANWANG DIGUI-168","OBJECT_ID":"2026-076E","EPOCH":"2026-07-23T05:00:16.216992","CLASSIFICATION_TYPE":"U","MEAN_MOTION":13.24411226,"ECCENTRICITY":0.00020651,"INCLINATION":86.4942,"RA_OF_ASC_NODE":31.6847,"ARG_OF_PERICENTER":82.2961,"MEAN_ANOMALY":277.8408,"EPHEMERIS_TYPE":0,"NORAD_CAT_ID":68660,"ELEMENT_SET_NO":999,"REV_AT_EPOCH":1413,"BSTAR":-0.000028833453,"MEAN_MOTION_DOT":2e-8,"MEAN_MOTION_DDOT":0}]}
