HULIANWANG DIGUI-156    
1 68130U 26047B   26204.23175754 -.00000096  00000+0  61269-4 0  9998
2 68130  50.0038 287.0388 0000932 230.9996 129.0793 13.29326595 17851
HULIANWANG DIGUI-157    
1 68131U 26047C   26203.69716721 -.00000093  00000+0  67023-4 0  9994
2 68131  50.0008 288.8520 0000966 227.2329 132.8462 13.29325935 17797
HULIANWANG DIGUI-158    
1 68132U 26047D   26203.53843249 -.00000096  00000+0  60891-4 0  9993
2 68132  50.0055 289.3985 0001024 224.1695 135.9095 13.29324620 17762
HULIANWANG DIGUI-159    
1 68133U 26047E   26204.28188088 -.00000089  00000+0  74607-4 0  9992
2 68133  50.0024 286.6248 0001117 222.0237 138.0550 13.29326512 17877
HULIANWANG DIGUI-160    
1 68134U 26047F   26203.66365977 -.00000088  00000+0  77836-4 0  9994
2 68134  50.0082 288.7586 0001140 210.3437 149.7369 13.29326249 17782
HULIANWANG DIGUI-161    
1 68135U 26047G   26204.27345413 -.00000090  00000+0  73127-4 0  9998
2 68135  50.0099 286.6668 0001005 223.6305 136.4488 13.29325325 17879
HULIANWANG DIGUI-162    
1 68136U 26047H   26204.25698310 -.00000085  00000+0  84670-4 0  9993
2 68136  50.0071 286.5493 0000975 232.8069 127.2714 13.29324774 17865
HULIANWANG DIGUI-163    
1 68137U 26047J   26204.24841866 -.00000097  00000+0  58367-4 0  9996
2 68137  50.0073 286.5080 0000930 230.8369 129.2421 13.29326076 17877
HULIANWANG DIGUI-164    
1 68656U 26076A   26204.23873448  .00000038  00000+0  55012-4 0  9992
2 68656  86.4948  31.6999 0001890  78.7285 281.4062 13.24410434 14143
HULIANWANG DIGUI-165    
1 68657U 26076B   26204.23117600  .00000010  00000+0 -10723-4 0  9995
2 68657  86.4965  31.7210 0002081  82.2312 277.9059 13.24413175 14145
HULIANWANG DIGUI-166    
1 68658U 26076C   26204.22369297  .00000010  00000+0 -97327-5 0  9992
2 68658  86.4906  31.6504 0002050  82.5263 277.6104 13.24411277 14149
HULIANWANG DIGUI-167    
1 68659U 26076D   26204.21606068  .00000012  00000+0 -65581-5 0  9991
2 68659  86.4960  31.7104 0002032  82.6479 277.4886 13.24413337 14141
HULIANWANG DIGUI-168    
1 68660U 26076E   26204.20852103  .00000002  00000+0 -28833-4 0  9992
2 68660  86.4942  31.6847 0002065  82.2961 277.8408 13.24411226 14132
